ONEWEB-0504             
1 54122U 22138K   25297.86875977  .00000143  00000+0  32437-3 0  9991
2 54122  87.9252 351.7779 0001651 107.0724 253.0590 13.19724777145790
ONEWEB-0505             
1 54123U 22138L   25297.86560108  .00000162  00000+0  37186-3 0  9996
2 54123  87.9257 351.7668 0001832 116.2833 243.8488 13.19725000145778
ONEWEB-0506             
1 54124U 22138M   25297.61287835 -.00000027  00000+0 -10075-3 0  9993
2 54124  87.9260 351.8138 0001868 104.8046 255.3294 13.19724466145738
ONEWEB-0507             
1 54125U 22138N   25297.86085928  .00000096  00000+0  20669-3 0  9994
2 54125  87.9240 351.8085 0001922 105.0014 255.1331 13.19725188145818
ONEWEB-0508             
1 54126U 22138P   25297.85770212  .00000075  00000+0  15569-3 0  9991
2 54126  87.9251 351.7981 0001966 109.4736 250.6610 13.19725508145795
ONEWEB-0509             
1 54127U 22138Q   25297.45334075  .00000022  00000+0  22798-4 0  9996
2 54127  87.9261 351.8442 0001933 102.7231 257.4118 13.19724988145711
ONEWEB-0510             
1 54128U 22138R   25297.98241770  .00000007  00000+0 -13602-4 0  9992
2 54128  87.9197 321.3463 0001952  78.4345 281.7008 13.20770553148230
ONEWEB-0511             
1 54129U 22138S   25297.45018767  .00000014  00000+0  20006-5 0  9997
2 54129  87.9260 351.8489 0001643  98.8470 261.2849 13.19725088145740
